start=new Date('2022-06-07T00:00:00.000Z').valueOf();
sats=[{"APOAPSIS":"548.634","INCLINATION":"53.0558","TLE_LINE1":"1 48319U 21036AV  22157.66702150 -.00000889  00000-0 -40808-4 0  9992","MEAN_MOTION":"15.06391184","FILE":"3484350","RCS_SIZE":"LARGE","TIME_SYSTEM":"UTC","MEAN_MOTION_DDOT":"0.0000000000000","PERIOD":"95.593","TLE_LINE2":"2 48319  53.0558 140.8603 0002012  55.7906 304.3274 15.06391184 61235","CLASSIFICATION_TYPE":"U","BSTAR":"-0.00004080800000","OBJECT_NAME":"STARLINK-2512","GP_ID":"205526800","EPHEMERIS_TYPE":"0","MEAN_ANOMALY":"304.3274","COUNTRY_CODE":"US","REF_FRAME":"TEME","ARG_OF_PERICENTER":"55.7906","DECAY_DATE":null,"REV_AT_EPOCH":"6123","ELEMENT_SET_NO":"999","RA_OF_ASC_NODE":"140.8603","ECCENTRICITY":"0.00020120","OBJECT_TYPE":"PAYLOAD","MEAN_ELEMENT_THEORY":"SGP4","SITE":"AFETR","PERIAPSIS":"545.847","MEAN_MOTION_DOT":"-0.00000889","NORAD_CAT_ID":"48319","OBJECT_ID":"2021-036AV","EPOCH":"2022-06-06T16:00:30.657600","LAUNCH_DATE":"2021-04-29","SEMIMAJOR_AXIS":"6925.376","CENTER_NAME":"EARTH"},{"CENTER_NAME":"EARTH","SEMIMAJOR_AXIS":"6925.358","LAUNCH_DATE":"2021-04-29","OBJECT_ID":"2021-036AW","EPOCH":"2022-06-06T15:56:33.014400","MEAN_MOTION_DOT":"0.00000923","PERIAPSIS":"545.954","NORAD_CAT_ID":"48320","SITE":"AFETR","MEAN_ELEMENT_THEORY":"SGP4","OBJECT_TYPE":"PAYLOAD","RA_OF_ASC_NODE":"140.8878","ECCENTRICITY":"0.00018320","REV_AT_EPOCH":"6123","ELEMENT_SET_NO":"999","DECAY_DATE":null,"ARG_OF_PERICENTER":"54.9345","COUNTRY_CODE":"US","REF_FRAME":"TEME","EPHEMERIS_TYPE":"0","MEAN_ANOMALY":"305.1816","GP_ID":"205525081","OBJECT_NAME":"STARLINK-2029","BSTAR":"0.00008089200000","CLASSIFICATION_TYPE":"U","TLE_LINE2":"2 48320  53.0544 140.8878 0001832  54.9345 305.1816 15.06397007 61234","PERIOD":"95.592","MEAN_MOTION_DDOT":"0.0000000000000","RCS_SIZE":"LARGE","FILE":"3484350","TIME_SYSTEM":"UTC","APOAPSIS":"548.491","TLE_LINE1":"1 48320U 21036AW  22157.66427100  .00000923  00000-0  80892-4 0  9997","INCLINATION":"53.0544","MEAN_MOTION":"15.06397007"},{"MEAN_ELEMENT_THEORY":"SGP4","SITE":"AFETR","EPOCH":"2022-06-06T15:51:14.929344","OBJECT_ID":"2021-036AX","NORAD_CAT_ID":"48321","PERIAPSIS":"545.810","MEAN_MOTION_DOT":"0.00000948","SEMIMAJOR_AXIS":"6925.354","CENTER_NAME":"EARTH","LAUNCH_DATE":"2021-04-29","DECAY_DATE":null,"ARG_OF_PERICENTER":"56.3192","ELEMENT_SET_NO":"999","REV_AT_EPOCH":"6123","ECCENTRICITY":"0.00020350","RA_OF_ASC_NODE":"140.8948","OBJECT_TYPE":"PAYLOAD","CLASSIFICATION_TYPE":"U","BSTAR":"0.00008256600000","OBJECT_NAME":"STARLINK-2457","EPHEMERIS_TYPE":"0","MEAN_ANOMALY":"303.7991","GP_ID":"205525326","COUNTRY_CODE":"US","REF_FRAME":"TEME","TIME_SYSTEM":"UTC","RCS_SIZE":"LARGE","FILE":"3484350","MEAN_MOTION":"15.06398114","TLE_LINE1":"1 48321U 21036AX  22157.66058946  .00000948  00000-0  82566-4 0  9993","INCLINATION":"53.0553","APOAPSIS":"548.629","PERIOD":"95.592","MEAN_MOTION_DDOT":"0.0000000000000","TLE_LINE2":"2 48321  53.0553 140.8948 0002035  56.3192 303.7991 15.06398114 61233"},{"REV_AT_EPOCH":"6123","ELEMENT_SET_NO":"999","ARG_OF_PERICENTER":"60.2096","DECAY_DATE":null,"OBJECT_TYPE":"PAYLOAD","RA_OF_ASC_NODE":"140.9093","ECCENTRICITY":"0.00020330","SITE":"AFETR","MEAN_ELEMENT_THEORY":"SGP4","LAUNCH_DATE":"2021-04-29","SEMIMAJOR_AXIS":"6925.360","CENTER_NAME":"EARTH","PERIAPSIS":"545.817","MEAN_MOTION_DOT":"-0.00001079","NORAD_CAT_ID":"48322","OBJECT_ID":"2021-036AY","EPOCH":"2022-06-06T15:45:56.285280","APOAPSIS":"548.633","INCLINATION":"53.0559","TLE_LINE1":"1 48322U 21036AY  22157.65690145 -.00001079  00000-0 -53504-4 0  9994","MEAN_MOTION":"15.06396360","FILE":"3484350","RCS_SIZE":"LARGE","TIME_SYSTEM":"UTC","TLE_LINE2":"2 48322  53.0559 140.9093 0002033  60.2096 299.9095 15.06396360 61239","MEAN_MOTION_DDOT":"0.0000000000000","PERIOD":"95.592","OBJECT_NAME":"STARLINK-2477","BSTAR":"-0.00005350400000","CLASSIFICATION_TYPE":"U","COUNTRY_CODE":"US","REF_FRAME":"TEME","GP_ID":"205526076","EPHEMERIS_TYPE":"0","MEAN_ANOMALY":"299.9095"},{"PERIOD":"95.593","MEAN_MOTION_DDOT":"0.0000000000000","TLE_LINE2":"2 48323  53.0535 140.9296 0002381  50.2605 309.8593 15.06393078 61237","TIME_SYSTEM":"UTC","RCS_SIZE":"LARGE","FILE":"3484350","TLE_LINE1":"1 48323U 21036AZ  22157.65320978  .00000249  00000-0  35639-4 0  9994","MEAN_MOTION":"15.06393078","INCLINATION":"53.0535","APOAPSIS":"548.884","EPHEMERIS_TYPE":"0","MEAN_ANOMALY":"309.8593","GP_ID":"205526300","REF_FRAME":"TEME","COUNTRY_CODE":"US","BSTAR":"0.00003563900000","CLASSIFICATION_TYPE":"U","OBJECT_NAME":"STARLINK-2515","ECCENTRICITY":"0.00023810","RA_OF_ASC_NODE":"140.9296","OBJECT_TYPE":"PAYLOAD","DECAY_DATE":null,"ARG_OF_PERICENTER":"50.2605","ELEMENT_SET_NO":"999","REV_AT_EPOCH":"6123","EPOCH":"2022-06-06T15:40:37.324992","OBJECT_ID":"2021-036AZ","NORAD_CAT_ID":"48323","MEAN_MOTION_DOT":"0.00000249","PERIAPSIS":"545.586","SEMIMAJOR_AXIS":"6925.370","CENTER_NAME":"EARTH","LAUNCH_DATE":"2021-04-29","MEAN_ELEMENT_THEORY":"SGP4","SITE":"AFETR"},{"OBJECT_NAME":"STARLINK-2527","BSTAR":"-0.00003894800000","CLASSIFICATION_TYPE":"U","COUNTRY_CODE":"US","REF_FRAME":"TEME","MEAN_ANOMALY":"305.6595","EPHEMERIS_TYPE":"0","GP_ID":"205525581","TIME_SYSTEM":"UTC","FILE":"3484350","RCS_SIZE":"LARGE","TLE_LINE1":"1 48324U 21036BA  22157.64858206 -.00000862  00000-0 -38948-4 0  9993","INCLINATION":"53.0531","MEAN_MOTION":"15.06398874","APOAPSIS":"548.553","TLE_LINE2":"2 48324  53.0531 140.9350 0001929  54.4574 305.6595 15.06398874 61227","PERIOD":"95.592","MEAN_MOTION_DDOT":"0.0000000000000","SITE":"AFETR","MEAN_ELEMENT_THEORY":"SGP4","CENTER_NAME":"EARTH","SEMIMAJOR_AXIS":"6925.352","LAUNCH_DATE":"2021-04-29","EPOCH":"2022-06-06T15:33:57.489984","OBJECT_ID":"2021-036BA","NORAD_CAT_ID":"48324","PERIAPSIS":"545.881","MEAN_MOTION_DOT":"-0.00000862","ELEMENT_SET_NO":"999","REV_AT_EPOCH":"6122","DECAY_DATE":null,"ARG_OF_PERICENTER":"54.4574","OBJECT_TYPE":"PAYLOAD","ECCENTRICITY":"0.00019290","RA_OF_ASC_NODE":"140.9350"},{"MEAN_MOTION_DOT":"-0.00000916","PERIAPSIS":"545.792","NORAD_CAT_ID":"48325","OBJECT_ID":"2021-036BB","EPOCH":"2022-06-06T15:30:00.271008","LAUNCH_DATE":"2021-04-29","SEMIMAJOR_AXIS":"6925.330","CENTER_NAME":"EARTH","MEAN_ELEMENT_THEORY":"SGP4","SITE":"AFETR","RA_OF_ASC_NODE":"140.9745","ECCENTRICITY":"0.00020270","OBJECT_TYPE":"PAYLOAD","ARG_OF_PERICENTER":"52.3897","DECAY_DATE":null,"REV_AT_EPOCH":"6123","ELEMENT_SET_NO":"999","GP_ID":"205525827","MEAN_ANOMALY":"307.7276","EPHEMERIS_TYPE":"0","COUNTRY_CODE":"US","REF_FRAME":"TEME","CLASSIFICATION_TYPE":"U","BSTAR":"-0.00004254700000","OBJECT_NAME":"STARLINK-2495","MEAN_MOTION_DDOT":"0.0000000000000","PERIOD":"95.592","TLE_LINE2":"2 48325  53.0546 140.9745 0002027  52.3897 307.7276 15.06405931 61230","APOAPSIS":"548.599","TLE_LINE1":"1 48325U 21036BB  22157.64583647 -.00000916  00000-0 -42547-4 0  9998","MEAN_MOTION":"15.06405931","INCLINATION":"53.0546","FILE":"3484350","RCS_SIZE":"LARGE","TIME_SYSTEM":"UTC"},{"SITE":"AFETR","MEAN_ELEMENT_THEORY":"SGP4","LAUNCH_DATE":"2021-04-29","SEMIMAJOR_AXIS":"6925.366","CENTER_NAME":"EARTH","MEAN_MOTION_DOT":"-0.00000921","PERIAPSIS":"546.219","NORAD_CAT_ID":"48326","OBJECT_ID":"2021-036BC","EPOCH":"2022-06-06T21:46:51.558816","REV_AT_EPOCH":"6127","ELEMENT_SET_NO":"999","ARG_OF_PERICENTER":"70.2534","DECAY_DATE":null,"OBJECT_TYPE":"PAYLOAD","RA_OF_ASC_NODE":"139.7909","ECCENTRICITY":"0.00014620","OBJECT_NAME":"STARLINK-2498","BSTAR":"-0.00004296500000","CLASSIFICATION_TYPE":"U","COUNTRY_CODE":"US","REF_FRAME":"TEME","GP_ID":"205526577","MEAN_ANOMALY":"289.8613","EPHEMERIS_TYPE":"0","APOAPSIS":"548.244","TLE_LINE1":"1 48326U 21036BC  22157.90754119 -.00000921  00000-0 -42965-4 0  9992","INCLINATION":"53.0555","MEAN_MOTION":"15.06394283","FILE":"3484350","RCS_SIZE":"LARGE","TIME_SYSTEM":"UTC","TLE_LINE2":"2 48326  53.0555 139.7909 0001462  70.2534 289.8613 15.06394283 61274","MEAN_MOTION_DDOT":"0.0000000000000","PERIOD":"95.593"},{"SITE":"AFETR","MEAN_ELEMENT_THEORY":"SGP4","LAUNCH_DATE":"2021-04-29","SEMIMAJOR_AXIS":"6925.344","CENTER_NAME":"EARTH","NORAD_CAT_ID":"48327","PERIAPSIS":"545.832","MEAN_MOTION_DOT":"0.00000794","EPOCH":"2022-06-06T08:57:13.771584","OBJECT_ID":"2021-036BD","ELEMENT_SET_NO":"999","REV_AT_EPOCH":"6119","ARG_OF_PERICENTER":"50.6811","DECAY_DATE":null,"OBJECT_TYPE":"PAYLOAD","ECCENTRICITY":"0.00019880","RA_OF_ASC_NODE":"142.1852","OBJECT_NAME":"STARLINK-2502","BSTAR":"0.00007221300000","CLASSIFICATION_TYPE":"U","REF_FRAME":"TEME","COUNTRY_CODE":"US","GP_ID":"205495008","MEAN_ANOMALY":"309.4354","EPHEMERIS_TYPE":"0","TLE_LINE1":"1 48327U 21036BD  22157.37307606  .00000794  00000-0  72213-4 0  9994","MEAN_MOTION":"15.06401529","INCLINATION":"53.0550","APOAPSIS":"548.586","TIME_SYSTEM":"UTC","FILE":"3484104","RCS_SIZE":"LARGE","TLE_LINE2":"2 48327  53.0550 142.1852 0001988  50.6811 309.4354 15.06401529 61192","MEAN_MOTION_DDOT":"0.0000000000000","PERIOD":"95.592"},{"SITE":"AFETR","MEAN_ELEMENT_THEORY":"SGP4","SEMIMAJOR_AXIS":"6925.365","CENTER_NAME":"EARTH","LAUNCH_DATE":"2021-04-29","EPOCH":"2022-06-06T10:27:28.628064","OBJECT_ID":"2021-036BE","NORAD_CAT_ID":"48328","PERIAPSIS":"545.928","MEAN_MOTION_DOT":"0.00000776","ELEMENT_SET_NO":"999","REV_AT_EPOCH":"6120","DECAY_DATE":null,"ARG_OF_PERICENTER":"56.6870","OBJECT_TYPE":"PAYLOAD","ECCENTRICITY":"0.00018810","RA_OF_ASC_NODE":"141.9105","OBJECT_NAME":"STARLINK-2504","CLASSIFICATION_TYPE":"U","BSTAR":"0.00007101800000","COUNTRY_CODE":"US","REF_FRAME":"TEME","MEAN_ANOMALY":"303.4299","EPHEMERIS_TYPE":"0","GP_ID":"205495756","TIME_SYSTEM":"UTC","RCS_SIZE":"LARGE","FILE":"3484104","INCLINATION":"53.0553","TLE_LINE1":"1 48328U 21036BE  22157.43574801  .00000776  00000-0  71018-4 0  9997","MEAN_MOTION":"15.06394552","APOAPSIS":"548.533","TLE_LINE2":"2 48328  53.0553 141.9105 0001881  56.6870 303.4299 15.06394552 61208","PERIOD":"95.592","MEAN_MOTION_DDOT":"0.0000000000000"}];
